#dP2020  3  2  0  0  0.00000000     289 ORBIT ITRF  BHN ESOC                    
## 2095  86400.00000000   300.00000000 58910 0.0000000000000                    
+  108   G18G14G13G28G21G11G22G07G05G20G31G17G15G16G29G12G19                    
+        G23G02G25G01G30G24G27G06G09G03G32G26G08G10G04R09R20                    
+        R19R13R01R22R23R16R08R03R07R02R17R14R11R18R21R05R15                    
+        R12R04E11E12E19E18E14E26E24E30E08E09E01E02E07E03E04                    
+        E05E21E25E27E31E36E13E15E33C11C12C14C19C20C27C28C22                    
+        C21C29C30C23C24C26C25C32C33C35C34C36C37C06C07C08C09                    
+        C10C13C16J01J02J03  0  0  0  0  0  0  0  0  0  0  0                    
++         4  5  5  4  4  5  4  5  4  4  5  5  5  5  4  4  5                    
++         4  5  4  4  4  4  4  5  4  4  8  4  4  4  5  5  5                    
++         6  6  7  5  5  6  6  5  6  5  5  5  5  6  5  5  5                    
++         5  6  5  5  5  5  5  5  4  4  5  5  5  5  5  5  5                    
++         5  5  5  5  4  5  4  4  5  6  6  6  5  6  5  5  6                    
++         6  5  5  6  6  6  6  5  6  5  7  6  6  6  7  6  7                    
++         7  7  7  6  6  6  0  0  0  0  0  0  0  0  0  0  0                    
%c M  cc GPS ccc cccc cccc cccc cccc ccccc ccccc ccccc ccccc                    
%c cc cc ccc ccc cccc cccc cccc cccc ccccc ccccc ccccc ccccc                    
%f  0.0000000  0.000000000  0.00000000000  0.000000000000000                    
%f  0.0000000  0.000000000  0.00000000000  0.000000000000000                    
%i    0    0    0    0      0      0      0      0         0                    
%i    0    0    0    0      0      0      0      0         0                    
/* CCCCCCCCCCCCCCCCCCCCCCCCCCCCCCCCCCCCCCCCCCCCCCCCCCCCCCCCCCCCCCCCCCCCCCCCCCCCC
/* CCCCCCCCCCCCCCCCCCCCCCCCCCCCCCCCCCCCCCCCCCCCCCCCCCCCCCCCCCCCCCCCCCCCCCCCCCCCC
/* CCCCCCCCCCCCCCCCCCCCCCCCCCCCCCCCCCCCCCCCCCCCCCCCCCCCCCCCCCCCCCCCCCCCCCCCCCCCC
/* PCV:IGS        OL/AL:EOT11A   NONE     YN ORB:CoN CLK:CoN                    
*  2020  3  2 16 50  0.00000000                                                 
PG18  -6492.113406 -15448.213648 -21132.885586      5.252185                    
PG14  18587.899237 -18723.475178  -1641.483030    -28.905379                    
PG13 -10586.500155  21599.550263 -11291.698583     -8.762914                    
PG28 -14027.822944   3878.147957 -21630.272142    735.628509                    
PG21  26117.609327   3583.764684   2463.811347    -33.310728                    
PG11  -3781.938603 -16113.634567 -21279.112574   -345.372448                    
PG22 -10014.848141 -24467.621828  -2925.805473   -785.260571                    
PG07 -26020.771600  -5955.629484   2933.229099   -226.843619                    
PG05   -515.751773  22639.870459  13583.362937     -8.468116                    
PG20  18981.562957   7679.113791 -17109.416410    527.881228                    
PG31  18674.827453  -8952.333151  16846.956986    -26.835871                    
PG17 -20472.073947  12369.957931 -11066.954321    225.403199                    
PG15   1439.912148  20916.620242 -16389.289028   -247.733734                    
PG16   2435.541379 -22473.254506  13358.123779   -130.579148                    
PG29  14062.193882   5835.137673  21730.208990    -46.726282                    
PG12  10067.870646  24491.512820   2807.537209    145.144345                    
PG19 -20137.207692  16798.935131  -4510.308300   -191.180908                    
PG23  -9599.772955 -13054.053872  21356.396882   -132.507520                    
PG02  -9004.937294  14286.123618  21126.450283   -414.798128                    
PG25  16276.066305  16714.872228  12711.212719    -10.908786                    
PG01 -15152.738954 -13863.234817 -17231.511990   -312.878546                    
PG30 -25269.583675   1797.950103  -8287.273250   -166.169876                    
PG24  13608.033514  14369.222046 -18072.341225     -9.821342                    
PG27  11162.617265 -22741.526183  -7504.614209   -227.106807                    
PG06 -20291.988907   7724.015417  15383.351862   -221.769803                    
PG09 -15828.254077  -3708.701103  20953.912869   -167.863244                    
PG03 -13231.626638 -22424.678368   5440.846531   -107.864798                    
PG32  19962.077384 -13528.772894 -10901.395049    226.412667                    
PG26   8415.530706 -15692.884809  19607.065191    159.581585                    
PG08   1863.670574 -20890.517377 -16116.718982    -25.696751                    
PG10  14955.381550  -3090.136444 -21665.134049   -263.991057                    
PG04  -7641.398628 -14051.935111  21208.309461    -56.663633                    
PR09  -6885.456129   8849.985218 -22901.724901    119.730245                    
PR20 -21553.553975  11638.828292   7221.268826   -405.563383                    
PR19 -22249.832733   2674.299729 -12181.163840    -81.831812                    
PR13   9650.094778  -6274.519874  22741.338833    -35.566701                    
PR01  10892.908549   2259.345999 -22951.783743     57.913855                    
PR22  12859.397742   5168.075032  21393.211525    -16.258753                    
PR23  23845.779757  -6664.915678   6117.633834    289.955839                    
PR16 -20362.415235  -6664.142455 -13769.653559     -1.857626                    
PR08   6212.455055  17272.732120 -17666.388213    -50.833910                    
PR03   2064.550148 -25274.569826   2552.750163     10.830469                    
PR07  -1875.916248  25279.670436  -2999.436632    -33.902300                    
PR02   9356.429273 -18880.330462 -14294.699573    414.685363                    
PR17   6985.287505 -13108.026510 -20732.106098    305.663821                    
PR14  -6564.439042 -16228.843492  18562.079724     48.694610                    
PR11  19281.227629  16415.708569  -2878.805853    -15.391083                    
PR18 -10536.515838  -6556.009696 -22276.246282     27.045961                    
PR21  -6085.126117  12844.545928  21182.226076   -108.615518                    
PR05 -10976.561001    624.323552  23028.257642     45.992141                    
PR15 -18864.207532 -16743.302281   3795.130560    106.033653                    
PR12  20377.915186   7539.489725  13406.849453    110.502990                    
PR04  -6212.147519 -17191.361987  17816.148583     40.601436                    
PE11  17357.525788 -15198.938483 -18528.985479   1532.223185                    
PE12  29067.871618  -5413.831944  -1087.631571   5923.992219                    
PE19  12360.983571  13322.955893 -23361.095008     -1.296924                    
PE18  20558.019463 -15457.745841   5864.739453  -1023.452372                    
PE14 -24051.089389   3672.445003 -19067.511174   -925.691289                    
PE26   4511.879307  15865.219742  24590.151178   3465.427763                    
PE24   6192.866136 -17232.580601  23235.231777   5581.200948                    
PE30 -19657.764004  -1022.948395 -22113.390033   4099.099721                    
PE08 -19079.998954  10545.900140  20019.073047   6212.439864                    
PE09  13346.085202 -26056.990810  -4417.079996   6138.453751                    
PE01  21613.787897  18528.753102   8116.505791   -806.424272                    
PE02 -21630.123860 -18454.144775  -8204.340986    116.597892                    
PE07 -13595.535344  25903.010839   4489.268739   -348.658674                    
PE03 -13654.695431 -11258.957978  23727.525205   -272.398468                    
PE04  19261.649633 -10179.447486 -20033.870752   -477.004110                    
PE05     18.019867 -26319.696234  13546.501743   -400.661924                    
PE21  11183.810737  25288.541482 -10578.133804   -585.734318                    
PE25 -11094.757500 -25278.588727  10673.732297   -505.518726                    
PE27  -5962.475474  17337.417741 -23242.461731    270.672919                    
PE31  19550.874877    770.193916  22214.978916   -471.878623                    
PE36  -4226.649700 -15729.597760 -24703.679094    591.182891                    
PE13 -17560.159356  15153.010202  18408.903315    398.871841                    
PE15 -29023.978125   5688.192304   1320.874905    875.369370                    
PE33  23446.712780   7152.352946  16596.191015   -469.867796                    
PC11  10268.610993  11598.133215  23277.772675   -216.056541                    
PC12  -9093.118015  19661.008366  17620.320810    326.114972                    
PC14  10193.116304  22669.645457 -12601.132152    200.664545                    
PC19 -14210.979230 -14603.378043  19099.513033    340.760497                    
PC20  -5092.272664 -27011.428616   4919.760427   -799.423675                    
PC27  17389.760951 -19271.418034 -10225.511374    288.128322                    
PC28  25093.303013  -9743.383157   7372.308532    279.071954                    
PC22 -15264.108811   6487.648778  22445.042068   -890.032844                    
PC21  -7450.901301  23698.185059  12713.913773   -131.656953                    
PC29 -18290.357859  -4740.643148 -20539.977488    195.332992                    
PC30   -825.987435 -17584.111256 -21644.324200    280.464925                    
PC23  23515.459284    185.767161  15024.924619   -908.095228                    
PC24  10439.418133  19272.268743 -17300.078443   -921.587476                    
PC26  -8164.101046  13958.239334 -22749.733791    591.785848                    
PC25  24673.126439  13001.332854  -1258.044025   -534.896989                    
PC32   7242.052421 -23792.030357 -12649.600732   -884.342210                    
PC33  14269.388521  14584.484934 -19021.795030   -930.793713                    
PC35 -24776.471921  10492.180225  -7471.808052   -935.152103                    
PC34   1180.130109  17460.339349  21742.161573   -515.105230                    
PC36 -24268.954842 -13698.550576   1486.448218   -824.786922                    
PC37   9169.678584 -13382.167909  22720.055058   -866.969988                    
PC06 -22839.039514  34844.241767  -7411.786867    241.855054                    
PC07  -8418.678875  31799.950736 -25916.476032   -113.540125                    
PC08 -17096.891353  17915.554234  34147.000525   -139.121711                    
PC09 -12695.674372  34797.458471 -20242.510911    373.304778                    
PC10   3051.371306  38433.523949 -16406.780260   -715.551924                    
PC13  -1582.438815  23094.031979  35344.133289    299.782901                    
PC16 -19243.109564  35766.589021 -11668.185081   -747.737373                    
PJ01 -25884.150432  28533.116162  22165.939195   -326.487413                    
PJ02 -23714.631307  16385.100303 -26342.082316     -1.629612                    
PJ03 -28537.248319  31073.066019   4471.618095     -0.834848                    
EOF                                                                             
